[
  {
    "OBJECT_NAME": "STARLINK-3270",
    "OBJECT_ID": "2021-125AV",
    "EPOCH": "2025-06-14T14:03:43.733376",
    "MEAN_MOTION": 15.08838493,
    "ECCENTRICITY": 0.0001626,
    "INCLINATION": 53.2189,
    "RA_OF_ASC_NODE": 2.6866,
    "ARG_OF_PERICENTER": 97.3734,
    "MEAN_ANOMALY": 262.7443,
    "EPHEMERIS_TYPE": 0,
    "CLASSIFICATION_TYPE": "U",
    "NORAD_CAT_ID": 50199,
    "ELEMENT_SET_NO": 999,
    "REV_AT_EPOCH": 19625,
    "BSTAR": -7.5672e-05,
    "MEAN_MOTION_DOT": -1.492e-05,
    "MEAN_MOTION_DDOT": 0
  },
  {
    "OBJECT_NAME": "STARLINK-3235",
    "OBJECT_ID": "2021-125AW",
    "EPOCH": "2025-06-14T13:00:07.914528",
    "MEAN_MOTION": 15.08830914,
    "ECCENTRICITY": 0.0001561,
    "INCLINATION": 53.219,
    "RA_OF_ASC_NODE": 2.8474,
    "ARG_OF_PERICENTER": 83.5075,
    "MEAN_ANOMALY": 276.6095,
    "EPHEMERIS_TYPE": 0,
    "CLASSIFICATION_TYPE": "U",
    "NORAD_CAT_ID": 50200,
    "ELEMENT_SET_NO": 999,
    "REV_AT_EPOCH": 19626,
    "BSTAR": -5.1074e-05,
    "MEAN_MOTION_DOT": -1.101e-05,
    "MEAN_MOTION_DDOT": 0
  },
  {
    "OBJECT_NAME": "STARLINK-3255",
    "OBJECT_ID": "2021-125AX",
    "EPOCH": "2025-06-14T13:10:20.798976",
    "MEAN_MOTION": 15.42115058,
    "ECCENTRICITY": 5.37e-05,
    "INCLINATION": 53.213,
    "RA_OF_ASC_NODE": 356.6744,
    "ARG_OF_PERICENTER": 57.1412,
    "MEAN_ANOMALY": 302.9647,
    "EPHEMERIS_TYPE": 0,
    "CLASSIFICATION_TYPE": "U",
    "NORAD_CAT_ID": 50201,
    "ELEMENT_SET_NO": 999,
    "REV_AT_EPOCH": 19634,
    "BSTAR": 0.00037607,
    "MEAN_MOTION_DOT": 0.00015963,
    "MEAN_MOTION_DDOT": 0
  },
  {
    "OBJECT_NAME": "STARLINK-3256",
    "OBJECT_ID": "2021-125AY",
    "EPOCH": "2025-06-14T12:23:02.701536",
    "MEAN_MOTION": 15.08830514,
    "ECCENTRICITY": 0.0001457,
    "INCLINATION": 53.2179,
    "RA_OF_ASC_NODE": 2.9969,
    "ARG_OF_PERICENTER": 101.9771,
    "MEAN_ANOMALY": 258.1385,
    "EPHEMERIS_TYPE": 0,
    "CLASSIFICATION_TYPE": "U",
    "NORAD_CAT_ID": 50202,
    "ELEMENT_SET_NO": 999,
    "REV_AT_EPOCH": 19624,
    "BSTAR": -4.0832e-06,
    "MEAN_MOTION_DOT": -3.53e-06,
    "MEAN_MOTION_DDOT": 0
  },
  {
    "OBJECT_NAME": "STARLINK-3257",
    "OBJECT_ID": "2021-125AZ",
    "EPOCH": "2025-06-14T17:58:16.942944",
    "MEAN_MOTION": 15.0883862,
    "ECCENTRICITY": 0.000142,
    "INCLINATION": 53.2184,
    "RA_OF_ASC_NODE": 2.0449,
    "ARG_OF_PERICENTER": 80.7527,
    "MEAN_ANOMALY": 279.3626,
    "EPHEMERIS_TYPE": 0,
    "CLASSIFICATION_TYPE": "U",
    "NORAD_CAT_ID": 50203,
    "ELEMENT_SET_NO": 999,
    "REV_AT_EPOCH": 19320,
    "BSTAR": -6.1751e-06,
    "MEAN_MOTION_DOT": -3.86e-06,
    "MEAN_MOTION_DDOT": 0
  },
  {
    "OBJECT_NAME": "STARLINK-3254",
    "OBJECT_ID": "2021-125BA",
    "EPOCH": "2025-06-13T23:51:57.355776",
    "MEAN_MOTION": 15.08835208,
    "ECCENTRICITY": 0.0001216,
    "INCLINATION": 53.2158,
    "RA_OF_ASC_NODE": 5.3492,
    "ARG_OF_PERICENTER": 92.7127,
    "MEAN_ANOMALY": 267.4004,
    "EPHEMERIS_TYPE": 0,
    "CLASSIFICATION_TYPE": "U",
    "NORAD_CAT_ID": 50204,
    "ELEMENT_SET_NO": 999,
    "REV_AT_EPOCH": 19622,
    "BSTAR": 0.0011318,
    "MEAN_MOTION_DOT": 0.00017768,
    "MEAN_MOTION_DDOT": 0
  },
  {
    "OBJECT_NAME": "STARLINK-3260",
    "OBJECT_ID": "2021-125BB",
    "EPOCH": "2025-06-14T17:30:26.671104",
    "MEAN_MOTION": 15.08839268,
    "ECCENTRICITY": 0.0001065,
    "INCLINATION": 53.2179,
    "RA_OF_ASC_NODE": 332.0408,
    "ARG_OF_PERICENTER": 90.2848,
    "MEAN_ANOMALY": 269.8266,
    "EPHEMERIS_TYPE": 0,
    "CLASSIFICATION_TYPE": "U",
    "NORAD_CAT_ID": 50205,
    "ELEMENT_SET_NO": 999,
    "REV_AT_EPOCH": 19623,
    "BSTAR": -3.0034e-05,
    "MEAN_MOTION_DOT": -7.66e-06,
    "MEAN_MOTION_DDOT": 0
  },
  {
    "OBJECT_NAME": "STARLINK-3258",
    "OBJECT_ID": "2021-125BC",
    "EPOCH": "2025-06-14T13:59:47.432832",
    "MEAN_MOTION": 15.08831349,
    "ECCENTRICITY": 0.0001548,
    "INCLINATION": 53.2197,
    "RA_OF_ASC_NODE": 2.5936,
    "ARG_OF_PERICENTER": 103.2653,
    "MEAN_ANOMALY": 256.8512,
    "EPHEMERIS_TYPE": 0,
    "CLASSIFICATION_TYPE": "U",
    "NORAD_CAT_ID": 50206,
    "ELEMENT_SET_NO": 999,
    "REV_AT_EPOCH": 19418,
    "BSTAR": 2.2615e-06,
    "MEAN_MOTION_DOT": -2.52e-06,
    "MEAN_MOTION_DDOT": 0
  },
  {
    "OBJECT_NAME": "STARLINK-3262",
    "OBJECT_ID": "2021-125BD",
    "EPOCH": "2025-06-14T00:01:08.437440",
    "MEAN_MOTION": 15.0884449,
    "ECCENTRICITY": 0.0001389,
    "INCLINATION": 53.2189,
    "RA_OF_ASC_NODE": 5.3111,
    "ARG_OF_PERICENTER": 93.3208,
    "MEAN_ANOMALY": 266.7943,
    "EPHEMERIS_TYPE": 0,
    "CLASSIFICATION_TYPE": "U",
    "NORAD_CAT_ID": 50207,
    "ELEMENT_SET_NO": 999,
    "REV_AT_EPOCH": 19416,
    "BSTAR": 2.2019e-05,
    "MEAN_MOTION_DOT": 6.3e-07,
    "MEAN_MOTION_DDOT": 0
  },
  {
    "OBJECT_NAME": "STARLINK-3323",
    "OBJECT_ID": "2022-001B",
    "EPOCH": "2025-06-14T14:46:07.550688",
    "MEAN_MOTION": 15.08830539,
    "ECCENTRICITY": 0.0001195,
    "INCLINATION": 53.2177,
    "RA_OF_ASC_NODE": 282.5506,
    "ARG_OF_PERICENTER": 86.3769,
    "MEAN_ANOMALY": 273.736,
    "EPHEMERIS_TYPE": 0,
    "CLASSIFICATION_TYPE": "U",
    "NORAD_CAT_ID": 50804,
    "ELEMENT_SET_NO": 999,
    "REV_AT_EPOCH": 19007,
    "BSTAR": -5.7029e-05,
    "MEAN_MOTION_DOT": -1.195e-05,
    "MEAN_MOTION_DDOT": 0
  },
  {
    "OBJECT_NAME": "STARLINK-3333",
    "OBJECT_ID": "2022-001C",
    "EPOCH": "2025-06-14T14:40:50.187072",
    "MEAN_MOTION": 15.0883562,
    "ECCENTRICITY": 0.0001295,
    "INCLINATION": 53.2182,
    "RA_OF_ASC_NODE": 282.5682,
    "ARG_OF_PERICENTER": 90.2725,
    "MEAN_ANOMALY": 269.8415,
    "EPHEMERIS_TYPE": 0,
    "CLASSIFICATION_TYPE": "U",
    "NORAD_CAT_ID": 50805,
    "ELEMENT_SET_NO": 999,
    "REV_AT_EPOCH": 19134,
    "BSTAR": -9.7246e-05,
    "MEAN_MOTION_DOT": -1.835e-05,
    "MEAN_MOTION_DDOT": 0
  },
  {
    "OBJECT_NAME": "STARLINK-3335",
    "OBJECT_ID": "2022-001D",
    "EPOCH": "2025-06-14T13:00:07.933536",
    "MEAN_MOTION": 15.08840173,
    "ECCENTRICITY": 0.0001274,
    "INCLINATION": 53.2181,
    "RA_OF_ASC_NODE": 282.8844,
    "ARG_OF_PERICENTER": 105.6442,
    "MEAN_ANOMALY": 254.4691,
    "EPHEMERIS_TYPE": 0,
    "CLASSIFICATION_TYPE": "U",
    "NORAD_CAT_ID": 50806,
    "ELEMENT_SET_NO": 999,
    "REV_AT_EPOCH": 19006,
    "BSTAR": -7.1676e-05,
    "MEAN_MOTION_DOT": -1.428e-05,
    "MEAN_MOTION_DDOT": 0
  },
  {
    "OBJECT_NAME": "STARLINK-3355",
    "OBJECT_ID": "2022-001F",
    "EPOCH": "2025-06-14T14:24:55.811808",
    "MEAN_MOTION": 15.08830699,
    "ECCENTRICITY": 0.0001201,
    "INCLINATION": 53.218,
    "RA_OF_ASC_NODE": 282.6209,
    "ARG_OF_PERICENTER": 94.2065,
    "MEAN_ANOMALY": 265.9064,
    "EPHEMERIS_TYPE": 0,
    "CLASSIFICATION_TYPE": "U",
    "NORAD_CAT_ID": 50808,
    "ELEMENT_SET_NO": 999,
    "REV_AT_EPOCH": 19132,
    "BSTAR": -9.5564e-05,
    "MEAN_MOTION_DOT": -1.808e-05,
    "MEAN_MOTION_DDOT": 0
  },
  {
    "OBJECT_NAME": "STARLINK-3232",
    "OBJECT_ID": "2022-001G",
    "EPOCH": "2025-06-14T14:30:13.897728",
    "MEAN_MOTION": 15.08817012,
    "ECCENTRICITY": 0.0001158,
    "INCLINATION": 53.2171,
    "RA_OF_ASC_NODE": 282.6012,
    "ARG_OF_PERICENTER": 99.0245,
    "MEAN_ANOMALY": 261.0878,
    "EPHEMERIS_TYPE": 0,
    "CLASSIFICATION_TYPE": "U",
    "NORAD_CAT_ID": 50809,
    "ELEMENT_SET_NO": 999,
    "REV_AT_EPOCH": 19007,
    "BSTAR": 0.00031179,
    "MEAN_MOTION_DOT": 4.675e-05,
    "MEAN_MOTION_DDOT": 0
  }
]