STARLINK-3270           
1 50199U 21125AV  25165.58592284 -.00001492  00000+0 -75672-4 0  9995
2 50199  53.2189   2.6866 0001626  97.3734 262.7443 15.08838493196250
STARLINK-3235           
1 50200U 21125AW  25165.54175827 -.00001101  00000+0 -51074-4 0  9991
2 50200  53.2190   2.8474 0001561  83.5075 276.6095 15.08830914196263
STARLINK-3255           
1 50201U 21125AX  25165.54885184  .00015963  00000+0  37607-3 0  9990
2 50201  53.2130 356.6744 0000537  57.1412 302.9647 15.42115058196340
STARLINK-3256           
1 50202U 21125AY  25165.51600349 -.00000353  00000+0 -40832-5 0  9991
2 50202  53.2179   2.9969 0001457 101.9771 258.1385 15.08830514196245
STARLINK-3257           
1 50203U 21125AZ  25165.74880721 -.00000386  00000+0 -61751-5 0  9990
2 50203  53.2184   2.0449 0001420  80.7527 279.3626 15.08838620193201
STARLINK-3254           
1 50204U 21125BA  25164.99441384  .00017768  00000+0  11318-2 0  9996
2 50204  53.2158   5.3492 0001216  92.7127 267.4004 15.08835208196221
STARLINK-3260           
1 50205U 21125BB  25165.72947536 -.00000766  00000+0 -30034-4 0  9999
2 50205  53.2179 332.0408 0001065  90.2848 269.8266 15.08839268196234
STARLINK-3258           
1 50206U 21125BC  25165.58318788 -.00000252  00000+0  22615-5 0  9991
2 50206  53.2197   2.5936 0001548 103.2653 256.8512 15.08831349194189
STARLINK-3262           
1 50207U 21125BD  25165.00079210  .00000063  00000+0  22019-4 0  9999
2 50207  53.2189   5.3111 0001389  93.3208 266.7943 15.08844490194162
STARLINK-3323           
1 50804U 22001B   25165.61536517 -.00001195  00000+0 -57029-4 0  9999
2 50804  53.2177 282.5506 0001195  86.3769 273.7360 15.08830539190074
STARLINK-3333           
1 50805U 22001C   25165.61169198 -.00001835  00000+0 -97246-4 0  9993
2 50805  53.2182 282.5682 0001295  90.2725 269.8415 15.08835620191347
STARLINK-3335           
1 50806U 22001D   25165.54175849 -.00001428  00000+0 -71676-4 0  9993
2 50806  53.2181 282.8844 0001274 105.6442 254.4691 15.08840173190067
STARLINK-3355           
1 50808U 22001F   25165.60064597 -.00001808  00000+0 -95564-4 0  9993
2 50808  53.2180 282.6209 0001201  94.2065 265.9064 15.08830699191328
STARLINK-3232           
1 50809U 22001G   25165.60432752  .00004675  00000+0  31179-3 0  9990
2 50809  53.2171 282.6012 0001158  99.0245 261.0878 15.08817012190070
